{"type": "FeatureCollection", "features": [ {"type": "Feature", "properties": {"norad_id": 66717, "name": "FLOCK 4H-14", "group": "last-30-days", "lat": -81.15066577536273, "lon": 128.8077390108491, "alt_km": 519.0839243060445, "timestamp": "2025-12-26T03:50:10.806824+00:00", "meta": {"OBJECT_NAME": "FLOCK 4H-14", "OBJECT_ID": "2025-276BD", "EPOCH": "2025-12-25T17:08:23.425728", "MEAN_MOTION": 15.18382466, "ECCENTRICITY": 0.0001755, "INCLINATION": 97.4408, "RA_OF_ASC_NODE": 71.2882, "ARG_OF_PERICENTER": 130.1173, "MEAN_ANOMALY": 230.0215, "EPHEMERIS_TYPE": 0, "CLASSIFICATION_TYPE": "U", "NORAD_CAT_ID": 66717, "ELEMENT_SET_NO": 999, "REV_AT_EPOCH": 334, "BSTAR": 0.00031265, "MEAN_MOTION_DOT": 6.361e-05, "MEAN_MOTION_DDOT": 0}, "tle": {"line1": "1 66717U 25276BD  25359.71416002  .00006361  00000+0  31265-3 0  9999", "line2": "2 66717  97.4408  71.2882 0001755 130.1173 230.0215 15.18382466  3340"}}, "geometry": {"type": "Point", "coordinates": [128.8077390108491, -81.15066577536273]}}, {"type": "Feature", "properties": {"norad_id": 66718, "name": "FLOCK 4H-15", "group": "last-30-days", "lat": 21.133243478626085, "lon": -105.42281197442063, "alt_km": 514.6361773623148, "timestamp": "2025-12-26T03:50:10.806836+00:00", "meta": {"OBJECT_NAME": "FLOCK 4H-15", "OBJECT_ID": "2025-276BE", "EPOCH": "2025-12-25T17:38:30.422112", "MEAN_MOTION": 15.17140578, "ECCENTRICITY": 0.0003093, "INCLINATION": 97.4416, "RA_OF_ASC_NODE": 71.2641, "ARG_OF_PERICENTER": 255.4255, "MEAN_ANOMALY": 104.6635, "EPHEMERIS_TYPE": 0, "CLASSIFICATION_TYPE": "U", "NORAD_CAT_ID": 66718, "ELEMENT_SET_NO": 999, "REV_AT_EPOCH": 409, "BSTAR": 0.00048731, "MEAN_MOTION_DOT": 9.608e-05, "MEAN_MOTION_DDOT": 0}, "tle": {"line1": "1 66718U 25276BE  25359.73507433  .00009608  00000+0  48731-3 0  9994", "line2": "2 66718  97.4416  71.2641 0003093 255.4255 104.6635 15.17140578  4092"}}, "geometry": {"type": "Point", "coordinates": [-105.42281197442063, 21.133243478626085]}}, {"type": "Feature", "properties": {"norad_id": 66719, "name": "FLOCK 4H-16", "group": "last-30-days", "lat": 10.67150766989414, "lon": -106.89672418518599, "alt_km": 514.7718237773461, "timestamp": "2025-12-26T03:50:10.806847+00:00", "meta": {"OBJECT_NAME": "FLOCK 4H-16", "OBJECT_ID": "2025-276BF", "EPOCH": "2025-12-25T20:00:01.999008", "MEAN_MOTION": 15.17284887, "ECCENTRICITY": 0.0003268, "INCLINATION": 97.4436, "RA_OF_ASC_NODE": 71.3708, "ARG_OF_PERICENTER": 234.7759, "MEAN_ANOMALY": 312.1641, "EPHEMERIS_TYPE": 0, "CLASSIFICATION_TYPE": "U", "NORAD_CAT_ID": 66719, "ELEMENT_SET_NO": 999, "REV_AT_EPOCH": 353, "BSTAR": -0.0025368, "MEAN_MOTION_DOT": -0.0005022, "MEAN_MOTION_DDOT": 0}, "tle": {"line1": "1 66719U 25276BF  25359.83335647 -.00050220  00000+0 -25368-2 0  9990", "line2": "2 66719  97.4436  71.3708 0003268 234.7759 312.1641 15.17284887  3536"}}, "geometry": {"type": "Point", "coordinates": [-106.89672418518599, 10.67150766989414]}}, {"type": "Feature", "properties": {"norad_id": 66720, "name": "FLOCK 4H-17", "group": "last-30-days", "lat": -68.35312637995685, "lon": -127.50515786285128, "alt_km": 518.333625466802, "timestamp": "2025-12-26T03:50:10.806857+00:00", "meta": {"OBJECT_NAME": "FLOCK 4H-17", "OBJECT_ID": "2025-276BG", "EPOCH": "2025-12-25T17:14:55.752576", "MEAN_MOTION": 15.18102549, "ECCENTRICITY": 0.0002916, "INCLINATION": 97.4434, "RA_OF_ASC_NODE": 71.2945, "ARG_OF_PERICENTER": 175.4517, "MEAN_ANOMALY": 184.6744, "EPHEMERIS_TYPE": 0, "CLASSIFICATION_TYPE": "U", "NORAD_CAT_ID": 66720, "ELEMENT_SET_NO": 999, "REV_AT_EPOCH": 409, "BSTAR": 0.00052717, "MEAN_MOTION_DOT": 0.00010691, "MEAN_MOTION_DDOT": 0}, "tle": {"line1": "1 66720U 25276BG  25359.71870084  .00010691  00000+0  52717-3 0  9993", "line2": "2 66720  97.4434  71.2945 0002916 175.4517 184.6744 15.18102549  4093"}}, "geometry": {"type": "Point", "coordinates": [-127.50515786285128, -68.35312637995685]}}, {"type": "Feature", "properties": {"norad_id": 66721, "name": "FLOCK 4H-18", "group": "last-30-days", "lat": 17.7712382478794, "lon": -105.93403043782632, "alt_km": 515.2619361108736, "timestamp": "2025-12-26T03:50:10.806866+00:00", "meta": {"OBJECT_NAME": "FLOCK 4H-18", "OBJECT_ID": "2025-276BH", "EPOCH": "2025-12-25T19:12:36.268992", "MEAN_MOTION": 15.17177699, "ECCENTRICITY": 0.0002404, "INCLINATION": 97.4376, "RA_OF_ASC_NODE": 71.3135, "ARG_OF_PERICENTER": 267.3201, "MEAN_ANOMALY": 92.7757, "EPHEMERIS_TYPE": 0, "CLASSIFICATION_TYPE": "U", "NORAD_CAT_ID": 66721, "ELEMENT_SET_NO": 999, "REV_AT_EPOCH": 410, "BSTAR": 0.00051972, "MEAN_MOTION_DOT": 0.00010262, "MEAN_MOTION_DDOT": 0}, "tle": {"line1": "1 66721U 25276BH  25359.80041978  .00010262  00000+0  51972-3 0  9992", "line2": "2 66721  97.4376  71.3135 0002404 267.3201  92.7757 15.17177699  4106"}}, "geometry": {"type": "Point", "coordinates": [-105.93403043782632, 17.7712382478794]}}, {"type": "Feature", "properties": {"norad_id": 66722, "name": "FLOCK 4H-19", "group": "last-30-days", "lat": -82.09131413420317, "lon": -178.41584007908946, "alt_km": 519.1926502007227, "timestamp": "2025-12-26T03:50:10.806876+00:00", "meta": {"OBJECT_NAME": "FLOCK 4H-19", "OBJECT_ID": "2025-276BJ", "EPOCH": "2025-12-25T18:45:14.789088", "MEAN_MOTION": 15.18319375, "ECCENTRICITY": 0.0002587, "INCLINATION": 97.4381, "RA_OF_ASC_NODE": 71.3405, "ARG_OF_PERICENTER": 146.7447, "MEAN_ANOMALY": 213.395, "EPHEMERIS_TYPE": 0, "CLASSIFICATION_TYPE": "U", "NORAD_CAT_ID": 66722, "ELEMENT_SET_NO": 999, "REV_AT_EPOCH": 339, "BSTAR": 0.00079177, "MEAN_MOTION_DOT": 0.00016204, "MEAN_MOTION_DDOT": 0}, "tle": {"line1": "1 66722U 25276BJ  25359.78142117  .00016204  00000+0  79177-3 0  9996", "line2": "2 66722  97.4381  71.3405 0002587 146.7447 213.3950 15.18319375  3393"}}, "geometry": {"type": "Point", "coordinates": [-178.41584007908946, -82.09131413420317]}}, {"type": "Feature", "properties": {"norad_id": 66723, "name": "FLOCK 4H-20", "group": "last-30-days", "lat": -82.4396304920069, "lon": 151.72576750286996, "alt_km": 518.9360801065777, "timestamp": "2025-12-26T03:50:10.806886+00:00", "meta": {"OBJECT_NAME": "FLOCK 4H-20", "OBJECT_ID": "2025-276BK", "EPOCH": "2025-12-25T17:09:18.181728", "MEAN_MOTION": 15.18349995, "ECCENTRICITY": 0.0003075, "INCLINATION": 97.4416, "RA_OF_ASC_NODE": 71.2916, "ARG_OF_PERICENTER": 161.6924, "MEAN_ANOMALY": 198.4421, "EPHEMERIS_TYPE": 0, "CLASSIFICATION_TYPE": "U", "NORAD_CAT_ID": 66723, "ELEMENT_SET_NO": 999, "REV_AT_EPOCH": 334, "BSTAR": 0.00046111, "MEAN_MOTION_DOT": 9.409e-05, "MEAN_MOTION_DDOT": 0}, "tle": {"line1": "1 66723U 25276BK  25359.71479377  .00009409  00000+0  46111-3 0  9992", "line2": "2 66723  97.4416  71.2916 0003075 161.6924 198.4421 15.18349995  3340"}}, "geometry": {"type": "Point", "coordinates": [151.72576750286996, -82.4396304920069]}}, {"type": "Feature", "properties": {"norad_id": 66724, "name": "FLOCK 4H-21", "group": "last-30-days", "lat": -81.12408566298622, "lon": 128.4970302936135, "alt_km": 518.955018538466, "timestamp": "2025-12-26T03:50:10.806896+00:00", "meta": {"OBJECT_NAME": "FLOCK 4H-21", "OBJECT_ID": "2025-276BL", "EPOCH": "2025-12-25T17:08:23.195040", "MEAN_MOTION": 15.18398828, "ECCENTRICITY": 0.000236, "INCLINATION": 97.4382, "RA_OF_ASC_NODE": 71.2769, "ARG_OF_PERICENTER": 151.0118, "MEAN_ANOMALY": 209.1247, "EPHEMERIS_TYPE": 0, "CLASSIFICATION_TYPE": "U", "NORAD_CAT_ID": 66724, "ELEMENT_SET_NO": 999, "REV_AT_EPOCH": 334, "BSTAR": 0.00058477, "MEAN_MOTION_DOT": 0.0001197, "MEAN_MOTION_DDOT": 0}, "tle": {"line1": "1 66724U 25276BL  25359.71415735  .00011970  00000+0  58477-3 0  9995", "line2": "2 66724  97.4382  71.2769 0002360 151.0118 209.1247 15.18398828  3348"}}, "geometry": {"type": "Point", "coordinates": [128.4970302936135, -81.12408566298622]}}, {"type": "Feature", "properties": {"norad_id": 66725, "name": "FLOCK 4H-22", "group": "last-30-days", "lat": -11.60659275533422, "lon": -109.8626053612499, "alt_km": 517.5794155342683, "timestamp": "2025-12-26T03:50:10.806908+00:00", "meta": {"OBJECT_NAME": "FLOCK 4H-22", "OBJECT_ID": "2025-276BM", "EPOCH": "2025-12-25T19:04:54.931008", "MEAN_MOTION": 15.17528102, "ECCENTRICITY": 0.000146, "INCLINATION": 97.4371, "RA_OF_ASC_NODE": 71.3166, "ARG_OF_PERICENTER": 272.3632, "MEAN_ANOMALY": 87.7435, "EPHEMERIS_TYPE": 0, "CLASSIFICATION_TYPE": "U", "NORAD_CAT_ID": 66725, "ELEMENT_SET_NO": 999, "REV_AT_EPOCH": 410, "BSTAR": 0.00030597, "MEAN_MOTION_DOT": 6.072e-05, "MEAN_MOTION_DDOT": 0}, "tle": {"line1": "1 66725U 25276BM  25359.79508022  .00006072  00000+0  30597-3 0  9996", "line2": "2 66725  97.4371  71.3166 0001460 272.3632  87.7435 15.17528102  4100"}}, "geometry": {"type": "Point", "coordinates": [-109.8626053612499, -11.60659275533422]}}, {"type": "Feature", "properties": {"norad_id": 66726, "name": "FLOCK 4H-23", "group": "last-30-days", "lat": 10.974437822159329, "lon": -106.85496276978901, "alt_km": 514.4068807630683, "timestamp": "2025-12-26T03:50:10.806920+00:00", "meta": {"OBJECT_NAME": "FLOCK 4H-23", "OBJECT_ID": "2025-276BN", "EPOCH": "2025-12-25T19:10:49.247040", "MEAN_MOTION": 15.17257752, "ECCENTRICITY": 0.0003506, "INCLINATION": 97.4437, "RA_OF_ASC_NODE": 71.3379, "ARG_OF_PERICENTER": 228.7394, "MEAN_ANOMALY": 131.3538, "EPHEMERIS_TYPE": 0, "CLASSIFICATION_TYPE": "U", "NORAD_CAT_ID": 66726, "ELEMENT_SET_NO": 999, "REV_AT_EPOCH": 410, "BSTAR": 0.00033086, "MEAN_MOTION_DOT": 6.521e-05, "MEAN_MOTION_DDOT": 0}, "tle": {"line1": "1 66726U 25276BN  25359.79918110  .00006521  00000+0  33086-3 0  9995", "line2": "2 66726  97.4437  71.3379 0003506 228.7394 131.3538 15.17257752  4103"}}, "geometry": {"type": "Point", "coordinates": [-106.85496276978901, 10.974437822159329]}}]}